{
    "links": {
        "self": "http://www.neowsapp.com/rest/v1/neo/3443217?api_key=iIulBulltgU6a56xZRHN4H3l9WmuAYTsLGpBGhQ2"
    },
    "id": "3443217",
    "neo_reference_id": "3443217",
    "name": "(2008 YH30)",
    "designation": "2008 YH30",
    "nasa_jpl_url": "http://ssd.jpl.nasa.gov/sbdb.cgi?sstr=3443217",
    "absolute_magnitude_h": 26.8,
    "estimated_diameter": {
        "kilometers": {
            "estimated_diameter_min": 0.0116025908,
            "estimated_diameter_max": 0.0259441818
        },
        "meters": {
            "estimated_diameter_min": 11.6025908209,
            "estimated_diameter_max": 25.9441817907
        },
        "miles": {
            "estimated_diameter_min": 0.0072095135,
            "estimated_diameter_max": 0.0161209622
        },
        "feet": {
            "estimated_diameter_min": 38.066244069,
            "estimated_diameter_max": 85.1187093863
        }
    },
    "is_potentially_hazardous_asteroid": false,
    "close_approach_data": [
        {
            "close_approach_date": "2008-12-25",
            "close_approach_date_full": "2008-Dec-25 14:25",
            "epoch_date_close_approach": 1230215100000,
            "relative_velocity": {
                "kilometers_per_second": "10.3643022607",
                "kilometers_per_hour": "37311.4881384433",
                "miles_per_hour": "23183.9077269122"
            },
            "miss_distance": {
                "astronomical": "0.0091982838",
                "lunar": "3.5781323982",
                "kilometers": "1376043.664135506",
                "miles": "855033.8844457428"
            },
            "orbiting_body": "Earth"
        }
    ],
    "orbital_data": {
        "orbit_id": "8",
        "orbit_determination_date": "2017-04-06 09:01:46",
        "first_observation_date": "2008-12-31",
        "last_observation_date": "2009-01-03",
        "data_arc_in_days": 3,
        "observations_used": 23,
        "orbit_uncertainty": "8",
        "minimum_orbit_intersection": ".00881409",
        "jupiter_tisserand_invariant": "4.075",
        "epoch_osculation": "2454832.5",
        "eccentricity": ".4724874400461586",
        "semi_major_axis": "1.692651755389898",
        "inclination": "5.44616750385685",
        "ascending_node_longitude": "98.75919949127122",
        "orbital_period": "804.3588616187285",
        "perihelion_distance": ".8928950605960885",
        "perihelion_argument": "309.6677008507081",
        "aphelion_distance": "2.492408450183708",
        "perihelion_time": "2454791.736903738062",
        "mean_anomaly": "18.24398953567269",
        "mean_motion": ".4475614270917829",
        "equinox": "J2000",
        "orbit_class": {
            "orbit_class_type": "APO",
            "orbit_class_description": "Near-Earth asteroid orbits which cross the Earth’s orbit similar to that of 1862 Apollo",
            "orbit_class_range": "a (semi-major axis) > 1.0 AU; q (perihelion) < 1.017 AU"
        }
    },
    "is_sentry_object": false
}